0 M-CUBED/EXP-1 PRIME
1 37855U 11061F   13282.31869174  .00008793  00000-0  64074-3 0  6103
2 37855 101.7008 189.6334 0233478 058.9246 055.8191 14.84863183105384
0 M-CUBED/EXP-1 PRIME
1 37855U 11061F   13283.72222406  .00009980  00000-0  72572-3 0  6112
2 37855 101.7008 191.6893 0233363 054.8799 358.4735 14.84880871105590
0 M-CUBED/EXP-1 PRIME
1 37855U 11061F   13285.55456137  .00008463  00000-0  61699-3 0  6129
2 37855 101.7012 194.3735 0233227 049.6306 073.4481 14.84907456105866
0 M-CUBED/EXP-1 PRIME
1 37855U 11061F   13286.68745623  .00008837  00000-0  64353-3 0  6131
2 37855 101.7015 196.0331 0233208 046.3922 009.5530 14.84925350106035
0 M-CUBED/EXP-1 PRIME
1 37855U 11061F   13288.38285235  .00012799  00000-0  92608-3 0  6145
2 37855 101.7018 198.5169 0233168 041.5412 072.7662 14.84959986106287
0 M-CUBED/EXP-1 PRIME
1 37855U 11061F   13289.71884661  .00012250  00000-0  88644-3 0  6159
2 37855 101.7020 200.4741 0233109 037.6985 014.8788 14.84985630106488
0 M-CUBED/EXP-1 PRIME
1 37855U 11061F   13290.72948426  .00012391  00000-0  89628-3 0  6162
2 37855 101.7021 201.9545 0233031 034.7901 017.7471 14.85006540106630
0 M-CUBED/EXP-1 PRIME
1 37855U 11061F   13291.74082556  .00011601  00000-0  83970-3 0  6176
2 37855 101.7021 203.4363 0232946 031.8790 024.4541 14.85026652106788
0 M-CUBED/EXP-1 PRIME
1 37855U 11061F   13292.75304184  .00011873  00000-0  85888-3 0  6184
2 37855 101.7021 204.9197 0232861 028.9722 035.9049 14.85048576106933
0 M-CUBED/EXP-1 PRIME
1 37855U 11061F   13294.70468213  .00014072  00000-0  10156-2 0  6195
2 37855 101.7019 207.7794 0232646 023.4086 029.8273 14.85087042107223
0 M-CUBED/EXP-1 PRIME
1 37855U 11061F   13295.71605598  .00013632  00000-0  98336-3 0  6206
2 37855 101.7014 209.2620 0232685 020.5141 036.9901 14.85109851107372
